ecotype_id,country,latitude,longitude,pop,nativename
607,United States of America,40.7777,-72.9069,Americas,LI-OF-002
615,United States of America,40.7777,-72.9069,Americas,LI-OF-023
623,United States of America,40.7777,-72.9069,Americas,LI-OF-042
627,United States of America,40.7777,-72.9069,Americas,LI-OF-060
631,United States of America,40.7777,-72.9069,Americas,LI-OF-066
640,United States of America,40.7777,-72.9069,Americas,LI-OF-094
641,United States of America,40.7777,-72.9069,Americas,LI-OF-095
719,United States of America,40.9352,-73.114,Americas,LI-SET-009
827,United States of America,38.0786,-84.473,Americas,KYF-21
895,United States of America,42.5319,-72.5595,Americas,MAW-7
936,United States of America,42.3853,-71.1173,Americas,FOR-5
946,United States of America,42.4682,-71.4158,Americas,CON-6
1716,United States of America,42.405,-85.398,Americas,KBS-Mac-8
1718,United States of America,42.405,-85.398,Americas,KBS-Mac-15
1719,United States of America,42.405,-85.398,Americas,KBS-Mac-16
1720,United States of America,42.405,-85.398,Americas,KBS-Mac-17
1722,United States of America,42.405,-85.398,Americas,KBS-Mac-23
1724,United States of America,42.405,-85.398,Americas,KBS-Mac-28
1726,United States of America,42.405,-85.398,Americas,KBS-Mac-33
1729,United States of America,42.405,-85.398,Americas,KBS-Mac-41
1730,United States of America,42.405,-85.398,Americas,KBS-Mac-43
1733,United States of America,42.405,-85.398,Americas,KBS-Mac-53
1736,United States of America,42.405,-85.398,Americas,KBS-Mac-58
1738,United States of America,42.405,-85.398,Americas,KBS-Mac-64
1740,United States of America,42.405,-85.398,Americas,KBS-Mac-72
1742,United States of America,42.405,-85.398,Americas,KBS-Mac-73
1743,United States of America,42.405,-85.398,Americas,KBS-Mac-75
1744,United States of America,42.405,-85.398,Americas,KBS-Mac-76
1745,United States of America,42.405,-85.398,Americas,KBS-Mac-78
1749,United States of America,42.405,-85.398,Americas,KBS-Mac-88
1750,United States of America,42.405,-85.398,Americas,KBS-Mac-89
1751,United States of America,42.405,-85.398,Americas,KBS-Mac-91
1752,United States of America,42.405,-85.398,Americas,KBS-Mac-95
1753,United States of America,42.405,-85.398,Americas,KBS-Mac-96
1782,United States of America,42.184,-86.358,Americas,Ker-38
1799,United States of America,41.847,-86.67,Americas,L-R-12
1829,United States of America,42.051,-86.509,Americas,Mdn-1
1850,United States of America,43.595,-86.2657,Americas,MNF-Pot-8
1853,United States of America,43.595,-86.2657,Americas,MNF-Pot-21
1857,United States of America,43.595,-86.2657,Americas,MNF-Pot-46
1858,United States of America,43.595,-86.2657,Americas,MNF-Pot-47
1859,United States of America,43.595,-86.2657,Americas,MNF-Pot-48
1862,United States of America,43.595,-86.2657,Americas,MNF-Pot-56
1864,United States of America,43.595,-86.2657,Americas,MNF-Pot-60
1865,United States of America,43.595,-86.2657,Americas,MNF-Pot-61
1867,United States of America,43.595,-86.2657,Americas,MNF-Pot-68
1868,United States of America,43.595,-86.2657,Americas,MNF-Pot-69
1871,United States of America,43.595,-86.2657,Americas,MNF-Pot-76
1872,United States of America,43.595,-86.2657,Americas,MNF-Pot-75
1873,United States of America,43.595,-86.2657,Americas,MNF-Pot-79
1874,United States of America,43.595,-86.2657,Americas,MNF-Pot-80
1918,United States of America,43.5139,-86.1859,Americas,MNF-Riv-67
1925,United States of America,43.5251,-86.1843,Americas,MNF-Che-2
1926,United States of America,43.5251,-86.1843,Americas,MNF-Che-3
1936,United States of America,43.5251,-86.1843,Americas,MNF-Che-36
1938,United States of America,43.5251,-86.1843,Americas,MNF-Che-41
1941,United States of America,43.5251,-86.1843,Americas,MNF-Che-45
1948,United States of America,43.5251,-86.1843,Americas,MNF-Che-58
1949,United States of America,43.5187,-86.1739,Americas,MNF-Jac-2
1952,United States of America,43.5187,-86.1739,Americas,MNF-Jac-9
1959,United States of America,43.5187,-86.1739,Americas,MNF-Jac-21
1960,United States of America,43.5187,-86.1739,Americas,MNF-Jac-22
1963,United States of America,43.5187,-86.1739,Americas,MNF-Jac-26
1965,United States of America,43.5187,-86.1739,Americas,MNF-Jac-30
1966,United States of America,43.5187,-86.1739,Americas,MNF-Jac-31
1967,United States of America,43.5187,-86.1739,Americas,MNF-Jac-32
1968,United States of America,43.5187,-86.1739,Americas,MNF-Jac-34
1981,United States of America,43.5187,-86.1739,Americas,MNF-Jac-68
1992,United States of America,43.5356,-86.1788,Americas,MNF-Pin-2
2011,United States of America,43.5356,-86.1788,Americas,MNF-Pin-31
2016,United States of America,43.5356,-86.1788,Americas,MNF-Pin-39
2019,United States of America,43.5356,-86.1788,Americas,MNF-Pin-43
2020,United States of America,43.5356,-86.1788,Americas,MNF-Pin-44
2057,United States of America,42.166,-86.412,Americas,Map-42
2148,United States of America,42.148,-86.431,Americas,Paw-1
2150,United States of America,42.148,-86.431,Americas,Paw-3
2151,United States of America,42.148,-86.431,Americas,Paw-4
2157,United States of America,42.148,-86.431,Americas,Paw-11
2160,United States of America,42.148,-86.431,Americas,Paw-14
2171,United States of America,42.148,-86.431,Americas,Paw-26
2175,United States of America,42.148,-86.431,Americas,Paw-31
2180,United States of America,42.148,-86.431,Americas,Paw-40
2187,United States of America,43.7623,-86.3929,Americas,Pent-1
2201,United States of America,43.7623,-86.3929,Americas,Pent-22
2204,United States of America,43.7623,-86.3929,Americas,Pent-30
2214,United States of America,43.7623,-86.3929,Americas,Pent-49
2274,United States of America,43.665,-86.496,Americas,SLSP-30
2280,United States of America,43.665,-86.496,Americas,SLSP-58
2283,United States of America,43.665,-86.496,Americas,SLSP-72
2290,United States of America,42.03,-86.514,Americas,Ste-3
2292,United States of America,42.03,-86.514,Americas,Ste-6
2294,United States of America,42.03,-86.514,Americas,Ste-9
2300,United States of America,42.03,-86.514,Americas,Ste-15
2316,United States of America,42.03,-86.514,Americas,Ste-37
2320,United States of America,43.48,-89.46,Americas,Wilcox-4
2327,United States of America,43.48,-89.46,Americas,Wilcox-16
2338,United States of America,43.48,-89.46,Americas,Wilcox-41
6744,United States of America,40.8585,-73.4675,Americas,CSHL-5
6810,United States of America,41.2816,-86.621,Americas,KNO-11
6927,United States of America,41.2816,-86.621,Americas,Kno-10
6928,United States of America,41.2816,-86.621,Americas,Kno-18
6977,Canada,49.3,-123,Americas,Van-0
6983,United States of America,37.45,-119.35,Americas,Yo-0
7033,United States of America,41.3599,-122.755,Americas,Buckhorn Pass
7477,United States of America,41.7302,-71.2825,Americas,WAR
7514,United States of America,41.5609,-86.4251,Americas,RRS-7
7515,United States of America,41.5609,-86.4251,Americas,RRS-10
7523,United States of America,42.0945,-86.3253,Americas,Pna-17
7524,United States of America,42.036,-86.511,Americas,Rmx-A02
7525,United States of America,42.036,-86.511,Americas,Rmx-A180
7526,United States of America,42.0945,-86.3253,Americas,Pna-10
7566,United States of America,42.093,-86.359,Americas,627ME-13Y1
7570,United States of America,42.093,-86.359,Americas,627ME-4MI1
7578,United States of America,42.0945,-86.3253,Americas,627PNA-1Y1
7580,United States of America,42.0945,-86.3253,Americas,627PNA-2B3
7584,United States of America,42.0945,-86.3253,Americas,627PNA-3M4
7717,United States of America,41.273,-86.625,Americas,KNO1.37
7787,United States of America,41.273,-86.625,Americas,KNO2.77
7837,United States of America,42.093,-86.359,Americas,ME3.41
7847,United States of America,42.093,-86.359,Americas,ME3.51
7867,United States of America,42.093,-86.359,Americas,ME4.20
8122,United States of America,42.036,-86.511,Americas,RMX3.11
8233,United States of America,41.1876,-87.1923,Americas,Dem-4
8534,United States of America,42.093,-86.359,Americas,328ME007
8557,United States of America,42.093,-86.359,Americas,328ME032
8608,United States of America,42.093,-86.359,Americas,11ME1.23
8610,United States of America,42.093,-86.359,Americas,11ME1.32
8612,United States of America,42.093,-86.359,Americas,11ME1.34
8616,United States of America,42.093,-86.359,Americas,11ME1.41
8617,United States of America,42.093,-86.359,Americas,11ME1.42
8619,United States of America,42.093,-86.359,Americas,11ME1.44
8629,United States of America,42.093,-86.359,Americas,11ME2.10
8631,United States of America,42.093,-86.359,Americas,11ME2.12
8640,United States of America,42.093,-86.359,Americas,11ME2.5
8673,United States of America,42.0945,-86.3253,Americas,328PNA032
8687,United States of America,42.0945,-86.3253,Americas,328PNA047
8690,United States of America,42.0945,-86.3253,Americas,328PNA051
8692,United States of America,42.0945,-86.3253,Americas,328PNA054
8695,United States of America,42.0945,-86.3253,Americas,328PNA057
8701,United States of America,42.0945,-86.3253,Americas,328PNA064
8719,United States of America,42.0945,-86.3253,Americas,1130PNA1.10
8724,United States of America,42.0945,-86.3253,Americas,11PNA1.15
8725,United States of America,42.0945,-86.3253,Americas,11PNA1.4
8727,United States of America,42.0945,-86.3253,Americas,11PNA1.6
8730,United States of America,42.0945,-86.3253,Americas,11PNA1.9
8759,United States of America,42.0945,-86.3253,Americas,11PNA3.18
8760,United States of America,42.0945,-86.3253,Americas,11PNA3.19
8768,United States of America,42.0945,-86.3253,Americas,11PNA3.63
8770,United States of America,42.0945,-86.3253,Americas,11PNA3.65
8774,United States of America,42.0945,-86.3253,Americas,11PNA3.71
8777,United States of America,42.0945,-86.3253,Americas,11PNA3.75
8787,United States of America,42.0945,-86.3253,Americas,11PNA3.86
8791,United States of America,42.0945,-86.3253,Americas,11PNA3.90
8796,United States of America,42.0945,-86.3253,Americas,11PNA4.101
8805,United States of America,42.0945,-86.3253,Americas,11PNA4.110
8811,United States of America,42.0945,-86.3253,Americas,11PNA4.116
8824,United States of America,42.0945,-86.3253,Americas,11PNA4.129
8954,United States of America,42.036,-86.511,Americas,RMX413.1
8957,United States of America,42.036,-86.511,Americas,RMX413.12
8961,United States of America,42.036,-86.511,Americas,RMX413.16
8962,United States of America,42.036,-86.511,Americas,RMX413.17
8965,United States of America,42.036,-86.511,Americas,RMX413.2
8966,United States of America,42.036,-86.511,Americas,RMX413.20
8967,United States of America,42.036,-86.511,Americas,RMX413.21
8969,United States of America,42.036,-86.511,Americas,RMX413.24
8970,United States of America,42.036,-86.511,Americas,RMX413.25
8973,United States of America,42.036,-86.511,Americas,RMX413.29
8975,United States of America,42.036,-86.511,Americas,RMX413.30
8976,United States of America,42.036,-86.511,Americas,RMX413.31
8977,United States of America,42.036,-86.511,Americas,RMX413.32
8985,United States of America,42.036,-86.511,Americas,RMX413.4
8992,United States of America,42.036,-86.511,Americas,RMX413.48
8996,United States of America,42.036,-86.511,Americas,RMX413.51
9001,United States of America,42.036,-86.511,Americas,RMX413.57
9004,United States of America,42.036,-86.511,Americas,RMX413.6
9006,United States of America,42.036,-86.511,Americas,RMX413.62
9007,United States of America,42.036,-86.511,Americas,RMX413.63
9008,United States of America,42.036,-86.511,Americas,RMX413.66
9011,United States of America,42.036,-86.511,Americas,RMX413.69
9012,United States of America,42.036,-86.511,Americas,RMX413.7
9041,United States of America,42.039,-86.5154,Americas,RMXF413.10
9045,United States of America,42.039,-86.5154,Americas,RMXF413.15
9053,United States of America,42.039,-86.5154,Americas,RMXF413.6
402,Czech Republic,49.3667,16.2667,Austria-Hungary,Zdarec2
403,Czech Republic,49.3667,16.2667,Austria-Hungary,Zdarec3
404,Czech Republic,49.4211,16.3497,Austria-Hungary,Doubravnik1
407,Czech Republic,49.4211,16.3497,Austria-Hungary,Doubravnik4
409,Czech Republic,49.4211,16.3497,Austria-Hungary,Doubravnik6
413,Czech Republic,49.4211,16.3497,Austria-Hungary,Doubravnik10
417,Czech Republic,49.4211,16.3497,Austria-Hungary,Doubravnik14
421,Czech Republic,49.4211,16.3497,Austria-Hungary,Doubravnik18
424,Czech Republic,49.4112,16.2815,Austria-Hungary,Draha2
428,Czech Republic,49.403,16.232,Austria-Hungary,Borky1
429,Czech Republic,49.403,16.232,Austria-Hungary,Borky2
5837,Czech Republic,49.4013,16.2326,Austria-Hungary,Bor-1
5838,Czech Republic,49.4013,16.2326,Austria-Hungary,Bor-2
5841,Czech Republic,49.4013,16.2326,Austria-Hungary,Bor-9
5846,Czech Republic,49.4013,16.2326,Austria-Hungary,Bor-15
5848,Czech Republic,49.4013,16.2326,Austria-Hungary,Bor-17
5871,Czech Republic,49.4112,16.2815,Austria-Hungary,DraII-2
5872,Czech Republic,49.4112,16.2815,Austria-Hungary,DraII-3
5873,Czech Republic,49.4112,16.2815,Austria-Hungary,DraII-4
5874,Czech Republic,49.4112,16.2815,Austria-Hungary,DraII-6
5875,Czech Republic,49.4112,16.2815,Austria-Hungary,DraII-7
5878,Czech Republic,49.4112,16.2815,Austria-Hungary,DraII-17
5883,Czech Republic,49.4112,16.2815,Austria-Hungary,DraIII-17
5884,Czech Republic,49.4112,16.2815,Austria-Hungary,DraIV 1-1
5887,Czech Republic,49.4112,16.2815,Austria-Hungary,DraIV 1-5
5888,Czech Republic,49.4112,16.2815,Austria-Hungary,DraIV 1-6
5891,Czech Republic,49.4112,16.2815,Austria-Hungary,DraIV 1-9
5893,Czech Republic,49.4112,16.2815,Austria-Hungary,DraIV 1-11
5894,Czech Republic,49.4112,16.2815,Austria-Hungary,DraIV 1-12
5895,Czech Republic,49.4112,16.2815,Austria-Hungary,DraIV 1-13
5896,Czech Republic,49.4112,16.2815,Austria-Hungary,DraIV 1-14
5898,Czech Republic,49.4112,16.2815,Austria-Hungary,DraIV 1-16
5899,Czech Republic,49.4112,16.2815,Austria-Hungary,DraIV 2-1
5900,Czech Republic,49.4112,16.2815,Austria-Hungary,DraIV 2-2
5901,Czech Republic,49.4112,16.2815,Austria-Hungary,DraIV 2-3
5902,Czech Republic,49.4112,16.2815,Austria-Hungary,DraIV 2-4
5904,Czech Republic,49.4112,16.2815,Austria-Hungary,DraIV 2-6
5905,Czech Republic,49.4112,16.2815,Austria-Hungary,DraIV 2-7
5906,Czech Republic,49.4112,16.2815,Austria-Hungary,DraIV 2-8
5908,Czech Republic,49.4112,16.2815,Austria-Hungary,DraIV 2-10
5910,Czech Republic,49.4112,16.2815,Austria-Hungary,DraIV 2-12
5911,Czech Republic,49.4112,16.2815,Austria-Hungary,DraIV 2-13
5913,Czech Republic,49.4112,16.2815,Austria-Hungary,DraIV 2-16
5914,Czech Republic,49.4112,16.2815,Austria-Hungary,DraIV 2-17
5915,Czech Republic,49.4112,16.2815,Austria-Hungary,DraIV 3-1
5916,Czech Republic,49.4112,16.2815,Austria-Hungary,DraIV 3-2
5919,Czech Republic,49.4112,16.2815,Austria-Hungary,DraIV 3-5
5920,Czech Republic,49.4112,16.2815,Austria-Hungary,DraIV 3-6
5921,Czech Republic,49.4112,16.2815,Austria-Hungary,DraIV 3-7
5922,Czech Republic,49.4112,16.2815,Austria-Hungary,DraIV 3-8
5923,Czech Republic,49.4112,16.2815,Austria-Hungary,DraIV 3-9
5924,Czech Republic,49.4112,16.2815,Austria-Hungary,DraIV 3-10
5926,Czech Republic,49.4112,16.2815,Austria-Hungary,DraIV 3-12
5927,Czech Republic,49.4112,16.2815,Austria-Hungary,DraIV 3-13
5932,Czech Republic,49.4112,16.2815,Austria-Hungary,DraIV 4-1
5933,Czech Republic,49.4112,16.2815,Austria-Hungary,DraIV 4-2
5934,Czech Republic,49.4112,16.2815,Austria-Hungary,DraIV 4-3
5935,Czech Republic,49.4112,16.2815,Austria-Hungary,DraIV 4-5
5938,Czech Republic,49.4112,16.2815,Austria-Hungary,DraIV 4-8
5939,Czech Republic,49.4112,16.2815,Austria-Hungary,DraIV 4-9
5940,Czech Republic,49.4112,16.2815,Austria-Hungary,DraIV 5-1
5942,Czech Republic,49.4112,16.2815,Austria-Hungary,DraIV 5-3
5943,Czech Republic,49.4112,16.2815,Austria-Hungary,DraIV 5-4
5945,Czech Republic,49.4112,16.2815,Austria-Hungary,DraIV 5-7
5946,Czech Republic,49.4112,16.2815,Austria-Hungary,DraIV 5-8
5948,Czech Republic,49.4112,16.2815,Austria-Hungary,DraIV 5-10
5953,Czech Republic,49.4112,16.2815,Austria-Hungary,DraIV 5-16
5955,Czech Republic,49.4112,16.2815,Austria-Hungary,DraIV 5-18
5956,Czech Republic,49.4112,16.2815,Austria-Hungary,DraIV 5-19
5959,Czech Republic,49.4112,16.2815,Austria-Hungary,DraIV 5-22
5961,Czech Republic,49.4112,16.2815,Austria-Hungary,DraIV 5-24
5963,Czech Republic,49.4112,16.2815,Austria-Hungary,DraIV 5-27
5966,Czech Republic,49.4112,16.2815,Austria-Hungary,DraIV 5-30
5968,Czech Republic,49.4112,16.2815,Austria-Hungary,DraIV 5-32
5969,Czech Republic,49.4112,16.2815,Austria-Hungary,DraIV 5-33
5970,Czech Republic,49.4112,16.2815,Austria-Hungary,DraIV 5-35
5972,Czech Republic,49.4112,16.2815,Austria-Hungary,DraIV 6-1
5975,Czech Republic,49.4112,16.2815,Austria-Hungary,DraIV 6-4
5979,Czech Republic,49.4112,16.2815,Austria-Hungary,DraIV 6-8
5982,Czech Republic,49.4112,16.2815,Austria-Hungary,DraIV 6-11
5983,Czech Republic,49.4112,16.2815,Austria-Hungary,DraIV 6-12
5984,Czech Republic,49.4112,16.2815,Austria-Hungary,DraIV 6-13
5987,Czech Republic,49.4112,16.2815,Austria-Hungary,DraIV 6-16
5988,Czech Republic,49.4112,16.2815,Austria-Hungary,DraIV 6-17
5990,Czech Republic,49.4112,16.2815,Austria-Hungary,DraIV 6-19
5991,Czech Republic,49.4112,16.2815,Austria-Hungary,DraIV 6-20
5992,Czech Republic,49.4112,16.2815,Austria-Hungary,DraIV 6-21
5993,Czech Republic,49.4112,16.2815,Austria-Hungary,DraIV 6-22
5994,Czech Republic,49.4112,16.2815,Austria-Hungary,DraIV 6-24
5996,Czech Republic,49.4112,16.2815,Austria-Hungary,DraIV 6-26
5997,Czech Republic,49.4112,16.2815,Austria-Hungary,DraIV 6-27
5998,Czech Republic,49.4112,16.2815,Austria-Hungary,DraIV 6-28
5999,Czech Republic,49.4112,16.2815,Austria-Hungary,DraIV 6-29
6003,Czech Republic,49.4112,16.2815,Austria-Hungary,DraIV 6-33
6004,Czech Republic,49.4112,16.2815,Austria-Hungary,DraIV 6-34
6005,Czech Republic,49.4112,16.2815,Austria-Hungary,DraIV 6-35
6007,Czech Republic,49.4112,16.2815,Austria-Hungary,DraIV 6-37
6008,Czech Republic,49.1,16.2,Austria-Hungary,Duk
6287,Czech Republic,49.2771,16.6314,Austria-Hungary,Udu-9
6309,Czech Republic,49.2771,16.6314,Austria-Hungary,UduI 1-25
6318,Czech Republic,49.2771,16.6314,Austria-Hungary,UduI 1-34
6396,Czech Republic,49.2771,16.6314,Austria-Hungary,UduI 4-9
6401,Czech Republic,49.2771,16.6314,Austria-Hungary,UduI 4-16
6402,Czech Republic,49.2771,16.6314,Austria-Hungary,UduI 4-17
6403,Czech Republic,49.2771,16.6314,Austria-Hungary,UduI 4-18
6416,Czech Republic,49.3853,16.2544,Austria-Hungary,Zdr-13
6417,Czech Republic,49.3853,16.2544,Austria-Hungary,Zdr-16
6418,Czech Republic,49.3853,16.2544,Austria-Hungary,Zdr-19
6421,Czech Republic,49.3853,16.2544,Austria-Hungary,ZdrI 1-8
6427,Czech Republic,49.3853,16.2544,Austria-Hungary,ZdrI 2-1
6435,Czech Republic,49.3853,16.2544,Austria-Hungary,ZdrI 2-10
6436,Czech Republic,49.3853,16.2544,Austria-Hungary,ZdrI 2-11
6444,Czech Republic,49.3853,16.2544,Austria-Hungary,ZdrI 2-20
6445,Czech Republic,49.3853,16.2544,Austria-Hungary,ZdrI 2-21
6446,Czech Republic,49.3853,16.2544,Austria-Hungary,ZdrI 2-22
6448,Czech Republic,49.3853,16.2544,Austria-Hungary,ZdrI 2-24
6449,Czech Republic,49.3853,16.2544,Austria-Hungary,ZdrI 2-25
6451,Czech Republic,49.3853,16.2544,Austria-Hungary,ZdrI 2-28
6453,Czech Republic,49.3853,16.2544,Austria-Hungary,ZdrI 2-30
6455,Czech Republic,49.3853,16.2544,Austria-Hungary,ZdrI 2-32
6458,Czech Republic,49.3853,16.2544,Austria-Hungary,ZdrI 2-36
6903,Czech Republic,49.4013,16.2326,Austria-Hungary,Bor-4
6904,Czech Republic,49.2,16.6166,Austria-Hungary,Br-0
6951,Czech Republic,49.42,16.36,Austria-Hungary,Pu2-23
6953,Czech Republic,49.42,16.36,Austria-Hungary,Pu2-24
6957,Czech Republic,49.42,16.36,Austria-Hungary,Pu2-8
6975,Austria,48.3,14.45,Austria-Hungary,Uod-1
6976,Austria,48.3,14.45,Austria-Hungary,Uod-7
6984,Czech Republic,49.3853,16.2544,Austria-Hungary,Zdr-1
6985,Czech Republic,49.3853,16.2544,Austria-Hungary,Zdr-6
7034,Czech Republic,48,19,Austria-Hungary,Blh-1
7035,Czech Republic,48,19,Austria-Hungary,Blh-2
7104,Czech Republic,49.4167,16.2667,Austria-Hungary,Dra-1
7105,Czech Republic,49.4167,16.2667,Austria-Hungary,Dra-2
7178,Czech Republic,49,15,Austria-Hungary,Jm-1
7283,Romania,44.7203,22.3955,Austria-Hungary,Ors-1
7284,Romania,44.7203,22.3955,Austria-Hungary,Ors-2
7299,Austria,47.04,10.51,Austria-Hungary,Pi-2
7340,Czech Republic,49.1833,15.8833,Austria-Hungary,Sav-0
7372,Austria,47.0748,9.9042,Austria-Hungary,Tscha-1
7423,Czech Republic,49.2,16.6166,Austria-Hungary,Jl-2
7424,Czech Republic,49.2,16.6166,Austria-Hungary,Jl-3
7425,Czech Republic,49.2,16.6166,Austria-Hungary,Jl-4
7461,Czech Republic,49,15,Austria-Hungary,H55
7462,Czech Republic,49,15,Austria-Hungary,Je54
7520,Czech Republic,49.38,16.81,Austria-Hungary,Lp2-2
7521,Czech Republic,49.38,16.81,Austria-Hungary,Lp2-6
8235,Czech Republic,48.8,17.1,Austria-Hungary,Hod
8236,Czech Republic,49.33,15.76,Austria-Hungary,HSm
8284,Czech Republic,49.4112,16.2815,Austria-Hungary,DraII-1
8285,Czech Republic,49.4112,16.2815,Austria-Hungary,DraIII-1
8311,Austria,47.5,11.5,Austria-Hungary,In-0
8314,Austria,47,14,Austria-Hungary,Ka-0
8365,Czech Republic,49,16,Austria-Hungary,Rak-2
8378,Czech Republic,49.49,14.24,Austria-Hungary,Sap-0
8412,Czech Republic,49.1833,15.8833,Austria-Hungary,Sav-0
461,United Kingdom,51.3,0.5,British-Isles,EM-183
466,United Kingdom,51.3,0.5,British-Isles,EM-134
4632,United Kingdom,50.4,-4.7,British-Isles,UKSW06-025
4675,United Kingdom,50.4,-4.7,British-Isles,UKSW06-070
4757,United Kingdom,50.4,-4.7,British-Isles,UKSW06-157
4758,United Kingdom,50.4,-4.7,British-Isles,UKSW06-158
4802,United Kingdom,50.4,-4.9,British-Isles,UKSW06-202
4820,United Kingdom,50.4,-4.9,British-Isles,UKSW06-220
4827,United Kingdom,50.4,-4.9,British-Isles,UKSW06-227
4862,United Kingdom,50.3,-4.9,British-Isles,UKSW06-262
4879,United Kingdom,50.3,-4.9,British-Isles,UKSW06-280
4927,United Kingdom,50.3,-4.8,British-Isles,UKSW06-329
4935,United Kingdom,50.3,-4.6,British-Isles,UKSW06-337
4980,United Kingdom,51.3,0.5,British-Isles,UKSE06-032
4997,United Kingdom,51.3,0.5,British-Isles,UKSE06-062
5056,United Kingdom,51.3,0.5,British-Isles,UKSE06-192
5106,United Kingdom,51.3,0.5,British-Isles,UKSE06-254
5116,United Kingdom,51.3,0.4,British-Isles,UKSE06-272
5122,United Kingdom,51.3,0.4,British-Isles,UKSE06-278
5133,United Kingdom,52.2,-1.7,British-Isles,UKSE06-302
5141,United Kingdom,52.2,-1.7,British-Isles,UKSE06-311
5145,United Kingdom,52.2,-1.7,British-Isles,UKSE06-315
5146,United Kingdom,52.2,-1.7,British-Isles,UKSE06-316
5158,United Kingdom,51.3,0.4,British-Isles,UKSE06-349
5159,United Kingdom,51.3,0.4,British-Isles,UKSE06-350
5160,United Kingdom,51.3,0.4,British-Isles,UKSE06-351
5175,United Kingdom,51.3,0.4,British-Isles,UKSE06-373
5202,United Kingdom,51.3,0.4,British-Isles,UKSE06-414
5207,United Kingdom,51.3,0.4,British-Isles,UKSE06-429
5232,United Kingdom,51.2,0.4,British-Isles,UKSE06-466
5245,United Kingdom,51.2,0.6,British-Isles,UKSE06-482
5264,United Kingdom,51.3,1.1,British-Isles,UKSE06-520
5282,United Kingdom,51.3,1.1,British-Isles,UKSE06-544
5285,United Kingdom,51.3,1.1,British-Isles,UKSE06-547
5292,United Kingdom,51.3,1.1,British-Isles,UKSE06-556
5299,United Kingdom,51.3,1.1,British-Isles,UKSE06-565
5310,United Kingdom,51.3,1.1,British-Isles,UKSE06-581
5322,United Kingdom,51.3,1.1,British-Isles,UKSE06-597
5331,United Kingdom,51.1,0.4,British-Isles,UKSE06-618
5335,United Kingdom,51.1,0.4,British-Isles,UKSE06-622
5337,United Kingdom,51.1,0.4,British-Isles,UKSE06-624
5339,United Kingdom,51.1,0.4,British-Isles,UKSE06-626
5341,United Kingdom,51.1,0.4,British-Isles,UKSE06-628
5350,United Kingdom,51.1,0.4,British-Isles,UKSE06-640
5364,United Kingdom,54.4,-3,British-Isles,UKNW06-019
5373,United Kingdom,54.4,-3,British-Isles,UKNW06-040
5377,United Kingdom,54.4,-3,British-Isles,UKNW06-050
5380,United Kingdom,54.4,-3,British-Isles,UKNW06-059
5381,United Kingdom,54.4,-3,British-Isles,UKNW06-060
5385,United Kingdom,54.4,-3,British-Isles,UKNW06-078
5386,United Kingdom,54.4,-3,British-Isles,UKNW06-079
5394,United Kingdom,54.4,-3,British-Isles,UKNW06-101
5398,United Kingdom,54.4,-3,British-Isles,UKNW06-105
5444,United Kingdom,54.6,-3.1,British-Isles,UKNW06-170
5450,United Kingdom,54.4,-3,British-Isles,UKNW06-178
5461,United Kingdom,54.4,-3,British-Isles,UKNW06-197
5466,United Kingdom,54.4,-3,British-Isles,UKNW06-202
5469,United Kingdom,54.4,-3,British-Isles,UKNW06-210
5494,United Kingdom,54.6,-3.3,British-Isles,UKNW06-259
5517,United Kingdom,54.6,-3.1,British-Isles,UKNW06-306
5536,United Kingdom,54.6,-3.1,British-Isles,UKNW06-355
5565,United Kingdom,54.6,-3.1,British-Isles,UKNW06-386
5582,United Kingdom,54.7,-3.4,British-Isles,UKNW06-410
5590,United Kingdom,54.7,-3.4,British-Isles,UKNW06-418
5596,United Kingdom,54.7,-3.4,British-Isles,UKNW06-425
5606,United Kingdom,54.7,-3.4,British-Isles,UKNW06-436
5628,United Kingdom,54.7,-3.4,British-Isles,UKNW06-460
5645,United Kingdom,54.4,-2.9,British-Isles,UKNW06-482
5670,United Kingdom,54.6,-3.1,British-Isles,UKNW99-010
5678,United Kingdom,54.6,-3.1,British-Isles,UKNW99-025
5709,United Kingdom,54.6,-2.6,British-Isles,UKID2
5710,United Kingdom,54.4,-3,British-Isles,UKID3
5713,United Kingdom,51.3,0.5,British-Isles,Bea-1
5715,United Kingdom,51.1,0.6,British-Isles,Bid-1
5716,United Kingdom,55.6,-3.5,British-Isles,UKID9
5717,United Kingdom,54.6,-3.2,British-Isles,Bra-1
5719,Ireland,53.0333,-9.1,British-Isles,Bur-0
5720,United Kingdom,53.3,-1.6,British-Isles,Cal-2
5721,United Kingdom,55.2,-2,British-Isles,UKID14
5722,United Kingdom,51.2,1,British-Isles,UKID15
5723,United Kingdom,51.3,1,British-Isles,Chr-1
5724,United Kingdom,51.4,0.1,British-Isles,UKID17
5728,United Kingdom,51.3,1.1,British-Isles,UKID21
5729,United Kingdom,54.7,-3.4,British-Isles,Coc-1
5731,United Kingdom,54.9,-2.9,British-Isles,Crl-1
5732,United Kingdom,54.9,-2.9,British-Isles,UKID25
5735,United Kingdom,52.3,-1.7,British-Isles,UKID28
5736,United Kingdom,51.3,0.5,British-Isles,Ema-1
5737,United Kingdom,51.3,0.1,British-Isles,UKID32
5738,United Kingdom,54.1,-1.6,British-Isles,UKID33
5739,United Kingdom,52.2,1.4,British-Isles,UKID34
5740,United Kingdom,51.3,0.9,British-Isles,UKID35
5741,United Kingdom,56.6,-4.1,British-Isles,For-2
5742,United Kingdom,51.3,1.1,British-Isles,Frd-1
5744,United Kingdom,55.4,-2.8,British-Isles,UKID39
5745,United Kingdom,51,-1.5,British-Isles,Hil-1
5746,United Kingdom,51.3,0.3,British-Isles,Igt-1
5749,United Kingdom,54.6,-3.1,British-Isles,Ksk-1
5750,United Kingdom,54.6,-3.1,British-Isles,Ksk-2
5752,United Kingdom,55.7,-3.8,British-Isles,Lan-1
5753,United Kingdom,54.7,-2.7,British-Isles,UKID48
5755,United Kingdom,51.3,1.1,British-Isles,Lha-1
5756,United Kingdom,52.2,0.8,British-Isles,UKID51
5758,United Kingdom,50.3,-5.2,British-Isles,UKID53
5759,United Kingdom,52.6,1.3,British-Isles,UKID54
5760,United Kingdom,53,-1.1,British-Isles,UKID55
5762,United Kingdom,55.6,-3.2,British-Isles,UKID58
5763,United Kingdom,51.2,0.4,British-Isles,UKID57
5767,United Kingdom,54.6,-2.8,British-Isles,Poo-1
5769,United Kingdom,51.3,1,British-Isles,UKID64
5770,United Kingdom,55.3,-1.9,British-Isles,UKID65
5774,United Kingdom,51.1,0.6,British-Isles,Sis-1
5777,United Kingdom,51.1,0.7,British-Isles,UKID72
5780,United Kingdom,53.1,-1,British-Isles,UKID75
5781,United Kingdom,54.3,-2.8,British-Isles,UKID76
5782,United Kingdom,53.7,-3,British-Isles,Su-1
5784,United Kingdom,56.4,-5.2,British-Isles,Ty-1
5785,United Kingdom,54.7,-2.9,British-Isles,UKID80
5787,United Kingdom,54.8,-3.2,British-Isles,UKID82
5788,United Kingdom,50.8,-2,British-Isles,UKID83
5789,United Kingdom,51.3,-0.5,British-Isles,Wis-1
5792,United Kingdom,50.8,-0.7,British-Isles,UKID87
5793,United Kingdom,51.3,0.6,British-Isles,UKID88
5795,United Kingdom,53.2,-1.7,British-Isles,UKID90
5798,United Kingdom,53.1,-3.3,British-Isles,UKID93
5799,United Kingdom,56,-3.4,British-Isles,UKID95
5802,United Kingdom,52.3,-1.6,British-Isles,UKID98
5803,United Kingdom,51.7,-4.7,British-Isles,UKID99
5804,United Kingdom,50.8,-1.1,British-Isles,UKID100
5805,United Kingdom,53.2,-1.4,British-Isles,UKID101
5807,United Kingdom,51.8,-0.5,British-Isles,UKID103
5812,United Kingdom,52.1,-2.3,British-Isles,UKID108
5813,United Kingdom,52,-2.4,British-Isles,UKID109
5816,United Kingdom,52,-1.7,British-Isles,UKID112
5817,United Kingdom,52.3,-1.5,British-Isles,UKID113
5820,United Kingdom,55.9,-3.3,British-Isles,Edi-2
5821,United Kingdom,56.7333,-5.98333,British-Isles,UKID115
5826,United Kingdom,56.7333,-5.98333,British-Isles,UKID120
6727,United Kingdom,51.4083,-0.6383,British-Isles,CIBC-2
6729,United Kingdom,51.4083,-0.6383,British-Isles,CIBC-4
6730,United Kingdom,51.4083,-0.6383,British-Isles,CIBC-5
6847,United Kingdom,51.4083,-0.6383,British-Isles,NFC-20
6905,Ireland,54.1,-6.2,British-Isles,Bur-0
6907,United Kingdom,51.4083,-0.6383,British-Isles,CIBC-17
6914,United Kingdom,55.949444,-3.160278,British-Isles,Edi-0
6923,United Kingdom,51.4083,-0.6383,British-Isles,HR-10
6924,United Kingdom,51.4083,-0.6383,British-Isles,HR-5
6943,United Kingdom,51.4083,-0.6383,British-Isles,NFA-10
6944,United Kingdom,51.4083,-0.6383,British-Isles,NFA-8
6966,United Kingdom,51.4083,-0.6383,British-Isles,Sq-1
6967,United Kingdom,51.4083,-0.6383,British-Isles,Sq-8
6989,United Kingdom,54.8,-2.4333,British-Isles,Alst-1
7026,United Kingdom,54.4,-3.2667,British-Isles,Boot-1
7064,United Kingdom,51.3,1.1,British-Isles,Cnt-1
7109,United Kingdom,51.3,0.5,British-Isles,Ema-1
7252,United Kingdom,54.6167,-2.3,British-Isles,Mc-0
7351,United Kingdom,56.4278,-5.23439,British-Isles,Ty-0
7479,United Kingdom,51.2878,0.0565,British-Isles,PHW-10
7482,United Kingdom,51.2878,0.0565,British-Isles,PHW-13
7483,United Kingdom,51.2878,0.0565,British-Isles,PHW-14
7490,United Kingdom,51.2878,0.0565,British-Isles,PHW-20
7492,United Kingdom,51.4167,-1.7167,British-Isles,PHW-22
7496,United Kingdom,50.6728,-3.8404,British-Isles,PHW-26
7498,United Kingdom,50.35,-3.5833,British-Isles,PHW-28
7502,United Kingdom,52.4,0.26,British-Isles,PHW-31
8323,United Kingdom,57,-4,British-Isles,Lc-0
9302,United Kingdom,55.9681,-3.21833,British-Isles,Edinburgh-5
9305,United Kingdom,55.9681,-3.21833,British-Isles,Edinburgh-8
9308,United Kingdom,57.9,-5.1525,British-Isles,Ullapool-3
9309,United Kingdom,57.9,-5.1525,British-Isles,Ullapool-4
9490,United Kingdom,55.9218,-3.17108,British-Isles,02B6
9496,United Kingdom,55.9212,-3.17857,British-Isles,09A3
9499,United Kingdom,55.8858,-3.16015,British-Isles,13B5
9504,United Kingdom,55.8877,-3.16377,British-Isles,12A1
6911,Cape Verde,15.1111,-23.6167,Cape Verde,Cvi-0
6916,Estonia,58.3,25.3,Eastern-Range,Est-1
6929,Tajikistan,38.48,68.49,Eastern-Range,Kondara
6930,Kazakhstan,49.5,73.1,Eastern-Range,Kz-1
6931,Kazakhstan,49.5,73.1,Eastern-Range,Kz-9
6938,Russia,55.7522,37.6322,Eastern-Range,Ms-0
6962,Tajikistan,38.35,68.48,Eastern-Range,Shahdara
6963,Tajikistan,38.35,68.48,Eastern-Range,Sorbo
6980,Belarus,52.3,30,Eastern-Range,Ws-0
7073,Russia,53.7502,34.7361,Eastern-Range,Chi-1
7168,Tajikistan,38.48,68.49,Eastern-Range,Hodja-Obi-Garm
7186,Lithuania,54.8969,23.8924,Eastern-Range,Kn-0
7296,Russia,59,29,Eastern-Range,Petergof
7323,Ukraine,49,38.28,Eastern-Range,Rubezhnoe-1
7413,Lithuania,54.6833,25.3167,Eastern-Range,Wil-2
7438,Russia,61.36,34.15,Eastern-Range,N13
7446,Russia,61.36,34.15,Eastern-Range,N4
7449,Russia,61.36,34.15,Eastern-Range,N7
7457,Russia,56.25,34.3167,Eastern-Range,Rld-2
8354,Russia,58,56.3167,Eastern-Range,Per-1
8388,Russia,52,36,Eastern-Range,Stw-0
8424,India,35,77,Eastern-Range,Kas-2
9077,Azerbaijan,38.7406,48.6131,Eastern-Range,Lerik1-6
9104,Georgia,41.8296,46.2831,Eastern-Range,Lag1-6
9165,Ukraine,50.4625,30.5411,Eastern-Range,Truk-5
9179,Ukraine,44.5656,34.3217,Eastern-Range,Ayu-Dag-3
100000,Lithuania,54.6833,25.3167,Eastern-Range,Wil-1
991,Sweden,55.3833,14.05,Fennoscandia,Ale-Stenar-41-1
992,Sweden,55.3833,14.05,Fennoscandia,Ale-Stenar-44-4
996,Sweden,55.3833,14.05,Fennoscandia,Ale-Stenar-50-11
997,Sweden,55.3833,14.05,Fennoscandia,Ale-Stenar-56-14
998,Sweden,55.3833,14.05,Fennoscandia,Ale-Stenar-57-16
999,Sweden,55.3833,14.05,Fennoscandia,Ale-Stenar-59-18
1002,Sweden,55.3833,14.05,Fennoscandia,Ale-Stenar-64-24
1006,Sweden,55.3833,14.05,Fennoscandia,Ale-Stenar-77-31
1026,Sweden,55.7,14.2,Fennoscandia,VM-12
1061,Sweden,55.7167,14.1333,Fennoscandia,Brösarp-11-135
1063,Sweden,55.7167,14.1333,Fennoscandia,Brösarp-21-140
1064,Sweden,55.7167,14.1333,Fennoscandia,Brösarp-25-142
1072,Sweden,55.7167,14.1333,Fennoscandia,Brösarp-51-157
1073,Sweden,55.7167,14.1333,Fennoscandia,Brösarp-53-159
1153,Sweden,56.7,16.5167,Fennoscandia,Aledal-1-34
1158,Sweden,56.7,16.5167,Fennoscandia,Aledal-6-49
1163,Sweden,56.7,16.5167,Fennoscandia,Aledal-11-63
1166,Sweden,56.7,16.5167,Fennoscandia,Aledal-14-73
1169,Sweden,56.7,16.5167,Fennoscandia,Aledal-17-82
1247,Sweden,59.4333,17.0167,Fennoscandia,Tos-31-374
1254,Sweden,59.4333,17.0167,Fennoscandia,Tos-82-387
1256,Sweden,59.4333,17.0167,Fennoscandia,Tos-93-391
1257,Sweden,59.4333,17.0167,Fennoscandia,Tos-95-393
1312,Sweden,59.5667,16.8667,Fennoscandia,Ängsö-57-419
1313,Sweden,59.5667,16.8667,Fennoscandia,Ängsö-59-422
1317,Sweden,59.5667,16.8667,Fennoscandia,Ängsö-74-430
1318,Sweden,59.5667,16.8667,Fennoscandia,Ängsö-80-432
1360,Sweden,59.7833,17.5833,Fennoscandia,Ham-2-228
1362,Sweden,59.7833,17.5833,Fennoscandia,Ham-6-232
1363,Sweden,59.7833,17.5833,Fennoscandia,Ham-7-233
1366,Sweden,59.7833,17.5833,Fennoscandia,Ham-10-239
1374,Sweden,59.7833,17.5833,Fennoscandia,Ham-27-256
1391,Sweden,59.8,17.5833,Fennoscandia,Stabby-13
1404,Sweden,59.8,17.5833,Fennoscandia,Stabby-26
1409,Sweden,62.8,18.2,Fennoscandia,Röd-38
1416,Sweden,62.8,18.2,Fennoscandia,Röd-45
1435,Sweden,62.8,18.2,Fennoscandia,Röd-17-319
1552,Sweden,63.0833,18.3667,Fennoscandia,Sku-30
1585,Sweden,65.25,15.6,Fennoscandia,Hen-16-268
5830,Sweden,56.3333,15.9667,Fennoscandia,App1-12
5831,Sweden,56.3333,15.9667,Fennoscandia,App1-14
5832,Sweden,56.3333,15.9667,Fennoscandia,App1-16
5835,Sweden,63.324,18.484,Fennoscandia,Bil-3
5836,Sweden,55.86,13.51,Fennoscandia,Boo2-3
5856,Sweden,63.0167,17.4914,Fennoscandia,Dör-10
5860,Sweden,62.6814,18.0165,Fennoscandia,Dra-3
5865,Sweden,55.76,14.12,Fennoscandia,Dra1-4
5867,Sweden,55.76,14.12,Fennoscandia,Dra2-1
5870,Sweden,55.76,14.12,Fennoscandia,Dra3-9
6009,Sweden,62.877,18.177,Fennoscandia,Eden-1
6010,Sweden,62.877,18.177,Fennoscandia,Eden-5
6011,Sweden,62.877,18.177,Fennoscandia,Eden-6
6012,Sweden,62.877,18.177,Fennoscandia,Eden-7
6013,Sweden,62.877,18.177,Fennoscandia,Eden-9
6016,Sweden,62.9,18.4,Fennoscandia,Eds-1
6017,Sweden,62.9,18.4,Fennoscandia,Eds-9
6019,Sweden,56.06,14.29,Fennoscandia,Fjä1-2
6020,Sweden,56.06,14.29,Fennoscandia,Fjä1-5
6021,Sweden,56.06,14.29,Fennoscandia,Fjä2-4
6022,Sweden,56.06,14.29,Fennoscandia,Fjä2-6
6023,Sweden,55.7509,13.3712,Fennoscandia,Fly2-1
6024,Sweden,55.7509,13.3712,Fennoscandia,Fly2-2
6025,Sweden,62.6437,17.7339,Fennoscandia,Gro-3
6030,Sweden,62.806,18.1896,Fennoscandia,Grön-5
6034,Sweden,56.1,13.74,Fennoscandia,Hov1-7
6035,Sweden,56.1,13.74,Fennoscandia,Hov1-10
6036,Sweden,56.1,13.74,Fennoscandia,Hov3-2
6038,Sweden,56.1,13.74,Fennoscandia,Hov3-5
6039,Sweden,56.1,13.74,Fennoscandia,Hovdala-2
6040,Sweden,55.66,13.4,Fennoscandia,Kni-1
6041,Sweden,56.0328,14.775,Fennoscandia,Lis-3
6043,Sweden,62.801,18.079,Fennoscandia,Löv-1
6046,Sweden,62.801,18.079,Fennoscandia,Löv-5
6064,Sweden,62.9513,18.2763,Fennoscandia,Nyl-2
6069,Sweden,62.9513,18.2763,Fennoscandia,Nyl-7
6071,Sweden,62.9308,18.3448,Fennoscandia,Omn-5
6073,Sweden,56.1481,15.8155,Fennoscandia,ÖMö1-7
6074,Sweden,56.4573,16.1408,Fennoscandia,Ör-1
6076,Sweden,55.6942,13.4504,Fennoscandia,Rev-2
6077,Sweden,55.6942,13.4504,Fennoscandia,Rev-3
6085,Sweden,55.7097,13.2145,Fennoscandia,Sparta-1
6086,Sweden,58.9,11.2,Fennoscandia,Sr:3
6087,Sweden,56.4666,16.1284,Fennoscandia,Stu-2
6090,Sweden,55.6525,13.2197,Fennoscandia,T1000
6091,Sweden,55.6525,13.215,Fennoscandia,T1010
6092,Sweden,55.6514,13.2233,Fennoscandia,T1020
6093,Sweden,55.6497,13.2203,Fennoscandia,T1030
6094,Sweden,55.6494,13.2147,Fennoscandia,T1040
6095,Sweden,55.6486,13.2161,Fennoscandia,T1050
6096,Sweden,55.6472,13.2225,Fennoscandia,T1060
6097,Sweden,55.6481,13.2264,Fennoscandia,T1070
6098,Sweden,55.6561,13.2178,Fennoscandia,T1080
6099,Sweden,55.6575,13.2386,Fennoscandia,T1090
6100,Sweden,55.6,13.2,Fennoscandia,T1110
6101,Sweden,55.6,13.2,Fennoscandia,T1120
6102,Sweden,55.6,13.2,Fennoscandia,T1130
6103,Sweden,55.7,13.2,Fennoscandia,T1150
6104,Sweden,55.7,13.2,Fennoscandia,T1160
6106,Sweden,55.7931,13.1186,Fennoscandia,T460
6107,Sweden,55.7942,13.1222,Fennoscandia,T470
6109,Sweden,55.7936,13.1233,Fennoscandia,T510
6110,Sweden,55.7958,13.1217,Fennoscandia,T520
6111,Sweden,55.7989,13.1219,Fennoscandia,T530
6112,Sweden,55.7967,13.1044,Fennoscandia,T540
6114,Sweden,55.8097,13.1342,Fennoscandia,T570
6115,Sweden,55.8,13.1367,Fennoscandia,T580
6116,Sweden,55.8,13.1369,Fennoscandia,T590
6118,Sweden,55.7,13.2,Fennoscandia,T610
6119,Sweden,55.7,13.2,Fennoscandia,T620
6120,Sweden,55.7,13.2,Fennoscandia,T630
6121,Sweden,55.8422,13.3019,Fennoscandia,T640
6122,Sweden,55.8364,13.3075,Fennoscandia,T670
6123,Sweden,55.8369,13.3033,Fennoscandia,T680
6124,Sweden,55.8378,13.3092,Fennoscandia,T690
6125,Sweden,55.8403,13.3106,Fennoscandia,T710
6126,Sweden,55.8411,13.3047,Fennoscandia,T720
6127,Sweden,55.8428,13.3058,Fennoscandia,T730
6128,Sweden,55.8397,13.2881,Fennoscandia,T740
6129,Sweden,55.8544,13.2875,Fennoscandia,T750
6131,Sweden,55.8369,13.3181,Fennoscandia,T780
6132,Sweden,55.8386,13.3186,Fennoscandia,T790
6133,Sweden,55.8364,13.2906,Fennoscandia,T800
6134,Sweden,55.8383,13.2906,Fennoscandia,T810
6136,Sweden,55.9336,13.5519,Fennoscandia,T840
6137,Sweden,55.9419,13.5603,Fennoscandia,T850
6138,Sweden,55.9403,13.5511,Fennoscandia,T860
6140,Sweden,55.9392,13.5539,Fennoscandia,T880
6141,Sweden,55.9414,13.5542,Fennoscandia,T890
6142,Sweden,55.9428,13.5558,Fennoscandia,T900
6144,Sweden,55.9506,13.5361,Fennoscandia,T920
6145,Sweden,55.9497,13.5533,Fennoscandia,T930
6146,Sweden,55.9575,13.5686,Fennoscandia,T940
6147,Sweden,55.9425,13.5675,Fennoscandia,T950
6148,Sweden,55.9319,13.5508,Fennoscandia,T960
6149,Sweden,55.9281,13.5481,Fennoscandia,T970
6150,Sweden,55.9261,13.5319,Fennoscandia,T980
6151,Sweden,55.6528,13.2244,Fennoscandia,T990
6154,Sweden,62.6422,17.7406,Fennoscandia,TAA 04
6163,Sweden,62.6425,17.7356,Fennoscandia,TAA 14
6166,Sweden,62.6425,17.7372,Fennoscandia,TAA 17
6169,Sweden,62.8714,18.3447,Fennoscandia,TÅD 01
6170,Sweden,62.8717,18.3442,Fennoscandia,TÅD 02
6171,Sweden,62.8717,18.3444,Fennoscandia,TÅD 03
6172,Sweden,62.8717,18.3436,Fennoscandia,TÅD 04
6173,Sweden,62.8717,18.3419,Fennoscandia,TÅD 05
6174,Sweden,62.8719,18.3422,Fennoscandia,TÅD 06
6177,Sweden,62.6322,17.69,Fennoscandia,TÄL 03
6180,Sweden,62.6322,17.6906,Fennoscandia,TÄL 07
6184,Sweden,62.8892,18.4522,Fennoscandia,TBÖ 01
6188,Sweden,55.7683,14.1386,Fennoscandia,TDr-1
6189,Sweden,55.7686,14.1383,Fennoscandia,TDr-2
6190,Sweden,55.7686,14.1381,Fennoscandia,TDr-3
6191,Sweden,55.7689,14.1375,Fennoscandia,TDr-4
6192,Sweden,55.7692,14.1369,Fennoscandia,TDr-5
6193,Sweden,55.7694,14.1347,Fennoscandia,TDr-7
6194,Sweden,55.7706,14.1342,Fennoscandia,TDr-8
6195,Sweden,55.7708,14.1342,Fennoscandia,TDr-9
6197,Sweden,55.7714,14.1333,Fennoscandia,TDr-11
6198,Sweden,55.7708,14.1331,Fennoscandia,TDr-13
6199,Sweden,55.7711,14.1206,Fennoscandia,TDr-14
6200,Sweden,55.7714,14.1214,Fennoscandia,TDr-15
6201,Sweden,55.7719,14.1211,Fennoscandia,TDr-16
6202,Sweden,55.7717,14.1206,Fennoscandia,TDr-17
6203,Sweden,55.7714,14.1208,Fennoscandia,TDr-18
6207,Sweden,55.7711,14.1217,Fennoscandia,TDr-22
6209,Sweden,62.8836,18.1842,Fennoscandia,TEDEN 02
6210,Sweden,62.8839,18.1836,Fennoscandia,TEDEN 03
6212,Sweden,63.0175,18.3239,Fennoscandia,TFÄ 02
6214,Sweden,63.0175,18.3281,Fennoscandia,TFÄ 04
6215,Sweden,63.0172,18.3281,Fennoscandia,TFÄ 05
6216,Sweden,63.0167,18.3283,Fennoscandia,TFÄ 06
6217,Sweden,63.0169,18.3283,Fennoscandia,TFÄ 07
6218,Sweden,63.0172,18.3283,Fennoscandia,TFÄ 08
6220,Sweden,62.806,18.1896,Fennoscandia,TGR 01
6221,Sweden,62.806,18.1896,Fennoscandia,TGR 02
6226,Sweden,62.7994,17.9033,Fennoscandia,THÖ 08
6231,Sweden,62.96,18.2844,Fennoscandia,TNY 04
6235,Sweden,62.9611,18.3589,Fennoscandia,TOM 01
6236,Sweden,62.9617,18.36,Fennoscandia,TOM 02
6237,Sweden,62.9619,18.35,Fennoscandia,TOM 03
6238,Sweden,62.9619,18.35,Fennoscandia,TOM 04
6240,Sweden,62.9622,18.35,Fennoscandia,TOM 06
6241,Sweden,62.9614,18.3608,Fennoscandia,TOM 07
6242,Sweden,55.7,13.2,Fennoscandia,Tomegap-2
6243,Sweden,55.95,13.85,Fennoscandia,Tottarp-2
6244,Sweden,62.9169,18.4728,Fennoscandia,TRÄ 01
6252,Sweden,55.5796,14.3336,Fennoscandia,TV-4
6255,Sweden,55.5796,14.3336,Fennoscandia,TV-7
6258,Sweden,55.5796,14.3336,Fennoscandia,TV-10
6268,Sweden,55.5796,14.3336,Fennoscandia,TV-22
6276,Sweden,55.5796,14.3336,Fennoscandia,TV-30
6284,Sweden,55.5796,14.3336,Fennoscandia,TV-38
6411,Sweden,56.06,13.97,Fennoscandia,Ull1-10
6412,Sweden,56.0648,13.9707,Fennoscandia,Ull2-7
6900,Sweden,63.324,18.484,Fennoscandia,Bil-5
6901,Sweden,63.324,18.484,Fennoscandia,Bil-7
6913,Sweden,62.877,18.177,Fennoscandia,Eden-2
6917,Sweden,63.0165,18.3174,Fennoscandia,Fäb-2
6918,Sweden,63.0165,18.3174,Fennoscandia,Fäb-4
6946,Norway,60.23,6.13,Fennoscandia,Oy-0
6965,Sweden,58.4173,14.1576,Fennoscandia,Spr1-6
6968,Finland,60,23.5,Fennoscandia,Tamm-2
6969,Finland,60,23.5,Fennoscandia,Tamm-27
6973,Sweden,56.0648,13.9707,Fennoscandia,Ull2-3
6974,Sweden,56.0648,13.9707,Fennoscandia,Ull2-5
6998,Sweden,59.4308,16.7999,Fennoscandia,Arby-1
7126,Finland,60.1997,24.5682,Fennoscandia,Es-0
7352,Finland,60.0585,23.2982,Fennoscandia,Te-0
7516,Sweden,55.58,14.334,Fennoscandia,Vår2-1
7517,Sweden,55.58,14.334,Fennoscandia,Vår2-6
7518,Sweden,56.1509,15.7735,Fennoscandia,ÖMö2-1
7519,Sweden,56.1509,15.7735,Fennoscandia,ÖMö2-3
8218,Sweden,62.877,18.177,Fennoscandia,Eden-4
8222,Sweden,56.0328,14.775,Fennoscandia,Lis-2
8225,Sweden,55.86,13.3103,Fennoscandia,T760
8227,Sweden,62.7989,17.9103,Fennoscandia,THÖ 03
8230,Sweden,56.68,16.5,Fennoscandia,Algutsrum
8231,Sweden,56.3,16,Fennoscandia,Brö1-6
8237,Sweden,55.8,13.1,Fennoscandia,Kävlinge-1
8240,Sweden,55.705,13.196,Fennoscandia,Kulturen-1
8242,Sweden,56.1494,15.7884,Fennoscandia,Lillö-1
8247,Sweden,56.07,13.74,Fennoscandia,San-2
8249,Sweden,57.7,15.8,Fennoscandia,Vimmerby
8258,Sweden,56.4,12.9,Fennoscandia,Bå4-1
8259,Sweden,56.4,12.9,Fennoscandia,Bå5-1
8266,Sweden,55.86,13.51,Fennoscandia,Boo2-1
8283,Sweden,55.76,14.12,Fennoscandia,Dra3-1
8306,Sweden,56.1,13.74,Fennoscandia,Hov4-1
8307,Sweden,56.1,13.74,Fennoscandia,Hovdala-6
8334,Sweden,55.71,13.2,Fennoscandia,Lu-1
8335,Sweden,55.71,13.2,Fennoscandia,Lund
8351,Sweden,60.25,18.37,Fennoscandia,Ost-0
8369,Sweden,55.6942,13.4504,Fennoscandia,Rev-1
8376,Sweden,62.69,18,Fennoscandia,Sanna-2
8422,Sweden,56.06,14.29,Fennoscandia,Fjä1-1
8426,Sweden,56.06,13.97,Fennoscandia,Ull1-1
8427,Sweden,56.0648,13.9707,Fennoscandia,Ull2-13
9057,Sweden,56.1,13.9167,Fennoscandia,Vinslöv
9321,Sweden,62.8622,18.336,Fennoscandia,Ådal 1
9323,Sweden,62.8622,18.336,Fennoscandia,Ådal 3
9332,Sweden,62.8698,18.381,Fennoscandia,Bar 1
9336,Sweden,62.8794,18.4473,Fennoscandia,Bön 1
9339,Sweden,57.7133,15.0689,Fennoscandia,Böt 1
9342,Sweden,57.7133,15.0689,Fennoscandia,Böt 4
9343,Sweden,57.3089,18.1512,Fennoscandia,Dja 1
9344,Sweden,57.3089,18.1512,Fennoscandia,Dja 2
9349,Sweden,58.2896,15.1265,Fennoscandia,Djk 3
9351,Sweden,57.2608,16.3675,Fennoscandia,Död 1
9352,Sweden,57.2608,16.3675,Fennoscandia,Död 2
9353,Sweden,57.2608,16.3675,Fennoscandia,Död 3
9354,Sweden,62.8762,18.1746,Fennoscandia,Eden 15
9355,Sweden,62.8762,18.1746,Fennoscandia,Eden 16
9356,Sweden,62.8762,18.1746,Fennoscandia,Eden 17
9363,Sweden,62.9147,18.4045,Fennoscandia,EdJ 2
9367,Sweden,57.6787,14.9981,Fennoscandia,EkN 3
9369,Sweden,57.6781,14.9986,Fennoscandia,EkS 2
9371,Sweden,63.016,18.3175,Fennoscandia,FäL 1
9378,Sweden,63.0165,18.3174,Fennoscandia,FäU 4
9380,Sweden,55.7488,13.3742,Fennoscandia,FlyA 3
9381,Sweden,55.81064,14.20914,Fennoscandia,Fri 1
9382,Sweden,55.81064,14.20914,Fennoscandia,Fri 2
9383,Sweden,55.81064,14.20914,Fennoscandia,Fri 3
9384,Sweden,57.4104,15.5743,Fennoscandia,Frö 1
9385,Sweden,57.4104,15.5743,Fennoscandia,Frö 3
9386,Sweden,62.806,18.1896,Fennoscandia,Grön 12
9388,Sweden,62.806,18.1896,Fennoscandia,Grön 14
9390,Sweden,57.3263,15.8979,Fennoscandia,Had 1
9391,Sweden,57.3263,15.8979,Fennoscandia,Had 2
9392,Sweden,57.3263,15.8979,Fennoscandia,Had 3
9399,Sweden,55.42339,13.99049,Fennoscandia,Ham 1
9402,Sweden,57.8765,14.8549,Fennoscandia,Hel 3
9404,Sweden,55.7491,13.399,Fennoscandia,HolA1 1
9405,Sweden,55.7491,13.399,Fennoscandia,HolA1 2
9407,Sweden,55.7491,13.399,Fennoscandia,HolA2 2
9408,Sweden,56.04697,13.95193,Fennoscandia,Kal 1
9409,Sweden,56.05727,14.30201,Fennoscandia,Kia 1
9410,Sweden,57.2746,16.1494,Fennoscandia,Kor 1
9411,Sweden,57.2746,16.1494,Fennoscandia,Kor 2
9412,Sweden,57.2746,16.1494,Fennoscandia,Kor 3
9413,Sweden,57.2746,16.1494,Fennoscandia,Kor 4
9416,Sweden,57.7215,18.3837,Fennoscandia,Kru 3
9418,Sweden,57.2164,18.154,Fennoscandia,Kva 2
9419,Sweden,58.1834,15.0062,Fennoscandia,Lag 1
9421,Sweden,55.97447,14.39966,Fennoscandia,Lan 1
9427,Sweden,62.8815,18.4055,Fennoscandia,Näs 2
9433,Sweden,62.9513,18.2763,Fennoscandia,Nyl 13
9434,Sweden,62.8959,18.3659,Fennoscandia,Öde 2
9437,Sweden,56.1633,14.6806,Fennoscandia,Puk 2
9442,Sweden,55.5678,14.3398,Fennoscandia,Sim 1
9443,Sweden,55.5678,14.3398,Fennoscandia,Sim 2
9446,Sweden,55.5678,14.3398,Fennoscandia,Sim 5
9450,Sweden,57.2545,18.2109,Fennoscandia,Spro 1
9451,Sweden,57.2545,18.2109,Fennoscandia,Spro 2
9452,Sweden,57.2545,18.2109,Fennoscandia,Spro 3
9453,Sweden,57.8009,18.5162,Fennoscandia,Ste 2
9454,Sweden,57.8009,18.5162,Fennoscandia,Ste 3
9469,Sweden,57.6511,14.8043,Fennoscandia,Tur 3
9470,Sweden,57.6511,14.8043,Fennoscandia,Tur 4
9471,Sweden,56.0648,13.9707,Fennoscandia,UllA 1
9472,Sweden,56.0648,13.9707,Fennoscandia,UllA 2
9476,Sweden,55.5796,14.3336,Fennoscandia,VårA 1
9481,Sweden,55.42422,13.84837,Fennoscandia,Yst 1
9482,Sweden,55.42422,13.84837,Fennoscandia,Yst 2
2,France,45.2667,1.48333,France,ALL1-3
5,France,45.2667,1.48333,France,ALL1-6
6,France,45.2667,1.48333,France,ALL1-7
7,France,45.2667,1.48333,France,ALL1-8
8,France,45.2667,1.48333,France,ALL1-9
12,France,45.2667,1.48333,France,ALL2-4
23,France,48.2667,-4.58333,France,CAM-16
32,France,48.2667,-4.58333,France,CAM-25
45,France,48.2667,-4.58333,France,CAM-42
48,France,48.2667,-4.58333,France,CAM-45
51,France,48.2667,-4.58333,France,CAM-48
60,France,48.2667,-4.58333,France,CAM-56
62,France,48.2667,-4.58333,France,CAM-58
66,France,48.2667,-4.58333,France,CAM-61
69,France,48.2667,-4.58333,France,CAM-64
74,France,48.2667,-4.58333,France,CAM-7
79,France,45,1.75,France,CUR-10
80,France,45,1.75,France,CUR-2
81,France,45,1.75,France,CUR-3
83,France,45,1.75,France,CUR-5
84,France,45,1.75,France,CUR-6
85,France,45,1.75,France,CUR-7
86,France,45,1.75,France,CUR-8
87,France,45,1.75,France,CUR-9
88,France,47.4,0.683333,France,CYR
89,France,48.7,1.98333,France,DAM1
94,France,47.7,6.81667,France,LAC-3
96,France,47.7,6.81667,France,LAC-5
104,France,48.5167,-4.06667,France,LDV-14
106,France,48.5167,-4.06667,France,LDV-16
116,France,48.5167,-4.06667,France,LDV-25
121,France,48.5167,-4.06667,France,LDV-3
122,France,48.5167,-4.06667,France,LDV-30
123,France,48.5167,-4.06667,France,LDV-31
126,France,48.5167,-4.06667,France,LDV-34
146,France,48.5167,-4.06667,France,LDV-53
148,France,48.5167,-4.06667,France,LDV-57
149,France,48.5167,-4.06667,France,LDV-58
151,France,48.5167,-4.06667,France,LDV-6
153,France,48.5167,-4.06667,France,LDV-68
157,France,48.5167,-4.06667,France,LDV-8
159,France,47.35,3.93333,France,MAR2-3
160,France,47.3833,5.31667,France,MIB-1
162,France,47.3833,5.31667,France,MIB-100
163,France,47.3833,5.31667,France,MIB-11
165,France,47.3833,5.31667,France,MIB-14
166,France,47.3833,5.31667,France,MIB-15
167,France,47.3833,5.31667,France,MIB-16
168,France,47.3833,5.31667,France,MIB-17
169,France,47.3833,5.31667,France,MIB-19
170,France,47.3833,5.31667,France,MIB-2
171,France,47.3833,5.31667,France,MIB-20
173,France,47.3833,5.31667,France,MIB-22
174,France,47.3833,5.31667,France,MIB-23
175,France,47.3833,5.31667,France,MIB-24
178,France,47.3833,5.31667,France,MIB-28
179,France,47.3833,5.31667,France,MIB-29
183,France,47.3833,5.31667,France,MIB-32
184,France,47.3833,5.31667,France,MIB-33
185,France,47.3833,5.31667,France,MIB-34
186,France,47.3833,5.31667,France,MIB-35
187,France,47.3833,5.31667,France,MIB-36
188,France,47.3833,5.31667,France,MIB-37
190,France,47.3833,5.31667,France,MIB-39
191,France,47.3833,5.31667,France,MIB-40
194,France,47.3833,5.31667,France,MIB-43
196,France,47.3833,5.31667,France,MIB-47
198,France,47.3833,5.31667,France,MIB-50
200,France,47.3833,5.31667,France,MIB-54
201,France,47.3833,5.31667,France,MIB-55
202,France,47.3833,5.31667,France,MIB-57
203,France,47.3833,5.31667,France,MIB-58
204,France,47.3833,5.31667,France,MIB-60
205,France,47.3833,5.31667,France,MIB-61
206,France,47.3833,5.31667,France,MIB-62
207,France,47.3833,5.31667,France,MIB-63
208,France,47.3833,5.31667,France,MIB-64
210,France,47.3833,5.31667,France,MIB-67
212,France,47.3833,5.31667,France,MIB-69
213,France,47.3833,5.31667,France,MIB-70
214,France,47.3833,5.31667,France,MIB-73
215,France,47.3833,5.31667,France,MIB-75
216,France,47.3833,5.31667,France,MIB-76
217,France,47.3833,5.31667,France,MIB-77
219,France,47.3833,5.31667,France,MIB-80
222,France,47.3833,5.31667,France,MIB-83
223,France,47.3833,5.31667,France,MIB-84
224,France,47.3833,5.31667,France,MIB-86
225,France,47.3833,5.31667,France,MIB-87
227,France,47.3833,5.31667,France,MIB-89
228,France,47.3833,5.31667,France,MIB-9
229,France,47.3833,5.31667,France,MIB-90
230,France,47.3833,5.31667,France,MIB-92
231,France,47.3833,5.31667,France,MIB-93
236,France,48.6667,-4.06667,France,MOG-11
237,France,48.6667,-4.06667,France,MOG-12
242,France,48.6667,-4.06667,France,MOG-37
244,France,48.6667,-4.06667,France,MOG-40
252,France,48.6667,-4.06667,France,MOG-55
257,France,46.65,-0.25,France,PAR-10
258,France,46.65,-0.25,France,PAR-3
259,France,46.65,-0.25,France,PAR-4
261,France,46.65,-0.25,France,PAR-6
262,France,46.65,-0.25,France,PAR-8
263,France,46.65,-0.25,France,PAR-9
264,France,45.75,4.71667,France,PON
267,France,45.5333,4.85,France,ROM-1
268,France,45.5333,4.85,France,ROM-2
269,France,45.5333,4.85,France,ROM-9
273,France,46.6667,4.11667,France,TOU-A1-105
275,France,46.6667,4.11667,France,TOU-A1-109
277,France,46.6667,4.11667,France,TOU-A1-111
278,France,46.6667,4.11667,France,TOU-A1-112
280,France,46.6667,4.11667,France,TOU-A1-114
281,France,46.6667,4.11667,France,TOU-A1-115
282,France,46.6667,4.11667,France,TOU-A1-116
283,France,46.6667,4.11667,France,TOU-A1-117
287,France,46.6667,4.11667,France,TOU-A1-120
288,France,46.6667,4.11667,France,TOU-A1-122
290,France,46.6667,4.11667,France,TOU-A1-124
291,France,46.6667,4.11667,France,TOU-A1-125
292,France,46.6667,4.11667,France,TOU-A1-128
293,France,46.6667,4.11667,France,TOU-A1-129
295,France,46.6667,4.11667,France,TOU-A1-131
296,France,46.6667,4.11667,France,TOU-A1-133
297,France,46.6667,4.11667,France,TOU-A1-134
298,France,46.6667,4.11667,France,TOU-A1-137
302,France,46.6667,4.11667,France,TOU-A1-143
306,France,46.6667,4.11667,France,TOU-A1-18
309,France,46.6667,4.11667,France,TOU-A1-23
310,France,46.6667,4.11667,France,TOU-A1-26
311,France,46.6667,4.11667,France,TOU-A1-27
314,France,46.6667,4.11667,France,TOU-A1-33
316,France,46.6667,4.11667,France,TOU-A1-37
318,France,46.6667,4.11667,France,TOU-A1-39
320,France,46.6667,4.11667,France,TOU-A1-41
321,France,46.6667,4.11667,France,TOU-A1-43
323,France,46.6667,4.11667,France,TOU-A1-47
326,France,46.6667,4.11667,France,TOU-A1-60
327,France,46.6667,4.11667,France,TOU-A1-61
328,France,46.6667,4.11667,France,TOU-A1-62
329,France,46.6667,4.11667,France,TOU-A1-63
331,France,46.6667,4.11667,France,TOU-A1-65
332,France,46.6667,4.11667,France,TOU-A1-66
335,France,46.6667,4.11667,France,TOU-A1-69
338,France,46.6667,4.11667,France,TOU-A1-73
339,France,46.6667,4.11667,France,TOU-A1-74
340,France,46.6667,4.11667,France,TOU-A1-75
341,France,46.6667,4.11667,France,TOU-A1-77
343,France,46.6667,4.11667,France,TOU-A1-79
346,France,46.6667,4.11667,France,TOU-A1-81
347,France,46.6667,4.11667,France,TOU-A1-82
348,France,46.6667,4.11667,France,TOU-A1-84
349,France,46.6667,4.11667,France,TOU-A1-85
355,France,46.6667,4.11667,France,TOU-A1-93
357,France,46.6667,4.11667,France,TOU-A1-96
359,France,46.6667,4.11667,France,TOU-A1-98
360,France,46.6667,4.11667,France,TOU-C-1
361,France,46.6667,4.11667,France,TOU-C-2
363,France,46.6667,4.11667,France,TOU-D-1
364,France,46.6667,4.11667,France,TOU-D-5
366,France,46.6667,4.11667,France,TOU-E-11
367,France,46.6667,4.11667,France,TOU-E-2
368,France,46.6667,4.11667,France,TOU-E-7
371,France,46.6667,4.11667,France,TOU-G-1
372,France,46.6667,4.11667,France,TOU-H-10
373,France,46.6667,4.11667,France,TOU-H-12
374,France,46.6667,4.11667,France,TOU-H-13
375,France,46.6667,4.11667,France,TOU-H-3
377,France,46.6667,4.11667,France,TOU-I-1
378,France,46.6667,4.11667,France,TOU-I-17
379,France,46.6667,4.11667,France,TOU-I-2
380,France,46.6667,4.11667,France,TOU-I-6
383,France,46.6667,4.11667,France,TOU-J-3
385,France,46.6667,4.11667,France,TOU-K-2
386,France,46.6667,4.11667,France,TOU-K-3
387,France,46.6667,4.11667,France,TOU-L-10
388,France,46.6667,4.11667,France,TOU-L-17
389,France,46.6667,4.11667,France,TOU-L-5
390,France,46.65,0.166667,France,VOU-1
391,France,46.65,0.166667,France,VOU-10
392,France,46.65,0.166667,France,VOU-2
393,France,46.65,0.166667,France,VOU-4
395,France,46.65,0.166667,France,VOU-6
396,France,46.65,0.166667,France,VOU-7
397,France,46.65,0.166667,France,VOU-8
6897,France,45,1.3,France,Ag-0
6936,France,46,3.3,France,Lz-0
6958,France,46,3.3,France,Ra-0
6959,France,48.5,-1.41,France,Ren-1
6960,France,48.5,-1.41,France,Ren-11
6994,France,45.9,6.13028,France,Ann-1
7071,France,48.0717,1.33867,France,Chat-1
7075,France,43.3779,2.54038,France,Cit-0
7092,France,49.416,2.823,France,Com-1
7098,France,47,5,France,Di-1
7307,France,48.0653,-2.96591,France,Pn-0
7430,France,48.6167,6.25,France,Nc-1
7506,France,48.6103,2.3086,France,PHW-35
7507,France,48.6103,2.3086,France,PHW-36
7508,France,48.6103,2.3086,France,PHW-37
8214,France,49,2,France,Gy-0
8275,France,49,0.5,France,Cen-0
8329,France,48,0.5,France,Lm-2
6906,Portugal,40.2077,-8.42639,Iberia,C24
6933,Spain,41.59,2.49,Iberia,LL-0
6961,Spain,38.3333,-3.53333,Iberia,Se-0
6970,Spain,41.7194,2.93056,Iberia,Ts-1
6971,Spain,41.7194,2.93056,Iberia,Ts-5
6988,Spain,40.31,-3.22,Iberia,Alc-0
7015,Spain,41.6833,2.8,Iberia,Bla-1
7017,Spain,41.6833,2.8,Iberia,Bla-11
7024,Spain,41.6833,2.8,Iberia,Bla-6
7078,Portugal,40.12,-8.25,Iberia,Co-2
7079,Portugal,40.12,-8.25,Iberia,Co-3
7080,Portugal,40.12,-8.25,Iberia,Co-4
7081,Portugal,40.2077,-8.42639,Iberia,Co
7238,Spain,41.59,2.49,Iberia,Ll-1
7239,Spain,41.59,2.49,Iberia,Ll-2
7300,Spain,41.5,2.25,Iberia,Pla-0
7301,Spain,41.5,2.25,Iberia,Pla-1
7303,Spain,41.5,2.25,Iberia,Pla-3
7328,Spain,41.7833,3.03333,Iberia,Sf-2
8213,Spain,43.25,-6,Iberia,Pro-0
8215,Portugal,40.5,-8.32,Iberia,Fei-0
8264,Spain,41.6833,2.8,Iberia,Bla-1
8274,Spain,29.2144,-13.4811,Iberia,Can-0
8357,Spain,41.5,2.25,Iberia,Pla-0
9137,Spain,42.7489,-3.0497,Iberia,Puent-4
9143,Spain,39.3092,-3.4242,Iberia,Navajo-5
9151,Spain,38.8158,-4.125,Iberia,Cala-7
9152,Spain,38.8158,-4.125,Iberia,Cala-8
9153,Spain,40.3939,-4.3919,Iberia,San Martin-1
9201,Spain,41.2417,-3.3828,Iberia,Cant-8
6939,Libya,32.34,22.46,Libya,Mt-0
7263,New Zealand,-37.7871,175.283,New Zealand,Nz1
6898,Belgium,51.2167,4.4,North-West Europe,An-1
6899,Germany,49,11,North-West Europe,Bay-0
6915,Germany,50.3,6.3,North-West Europe,Ei-2
6919,Germany,50.3,8,North-West Europe,Ga-0
6920,Germany,51.5338,9.9355,North-West Europe,Got-22
6921,Germany,51.5338,9.9355,North-West Europe,Got-7
6922,Germany,50.3,8,North-West Europe,Gu-0
6937,Germany,49,9.3,North-West Europe,Mrk-0
6940,Germany,50.3,8.3,North-West Europe,Mz-0
6945,Netherlands,52.24,4.45,North-West Europe,Nok-3
6978,Poland,52.3,21,North-West Europe,Wa-1
6982,Germany,52.3,9.3,North-West Europe,Wt-5
6987,Germany,48.0683,7.62551,North-West Europe,Ak-1
6992,Belgium,50.3,5.3,North-West Europe,Ang-0
7000,Germany,50.9167,9.57073,North-West Europe,Aa-0
7002,Netherlands,51.3333,6.1,North-West Europe,Baa-1
7008,Netherlands,52,5.675,North-West Europe,Benk-1
7013,Germany,52.4584,13.287,North-West Europe,Bd-0
7028,Germany,49.5166,9.3166,North-West Europe,Bch-1
7031,Germany,50.0167,8.6667,North-West Europe,Bsch-0
7032,Germany,50.0167,8.6667,North-West Europe,Bsch-2
7062,Germany,50.2981,8.26607,North-West Europe,Ca-0
7100,Germany,50.3055,8.324,North-West Europe,Db-0
7102,Germany,50.7224,8.2372,North-West Europe,Do-0
7110,Netherlands,52.0333,5.66667,North-West Europe,Ede-1
7121,Germany,50,8.5,North-West Europe,En-T
7123,Germany,50.1721,8.38912,North-West Europe,Ep-0
7135,Germany,50.1102,8.6822,North-West Europe,Fr-4
7139,Germany,50.5,8.0167,North-West Europe,Fi-1
7143,Netherlands,51.0167,5.86667,North-West Europe,Gel-1
7149,Germany,50.3,8,North-West Europe,Gu-0
7150,Germany,50.3,8,North-West Europe,Gu-1
7151,Germany,51.5338,9.9355,North-West Europe,Go-0
7152,Germany,51.5338,9.9355,North-West Europe,Go-2
7164,Denmark,55.675,12.5686,North-West Europe,Hau-0
7165,Germany,51.3472,8.28844,North-West Europe,Hn-0
7166,Netherlands,51.25,5.9,North-West Europe,Hey-1
7169,Germany,54.4175,9.88682,North-West Europe,Hh-0
7172,Germany,52.1444,9.37827,North-West Europe,Hl-3
7176,Germany,50.5,7.5,North-West Europe,Is-1
7188,Germany,50.0667,8.5333,North-West Europe,Kelsterbach-2
7195,Germany,50.95,6.9666,North-West Europe,Kl-1
7201,Germany,51.3317,6.55934,North-West Europe,Kr-0
7205,Germany,49.631,11.5722,North-West Europe,Krot-2
7206,Germany,50.0742,8.96617,North-West Europe,Kro-0
7227,Germany,50.3833,8.0666,North-West Europe,Li-5:2
7228,Germany,50.3833,8.0666,North-West Europe,Li-5:3
7229,Germany,50.3833,8.0666,North-West Europe,Li-6
7242,Germany,47.6166,7.6666,North-West Europe,Lo-2
7244,Germany,50.001,8.26664,North-West Europe,Mnz-0
7255,Poland,50.95,7.5,North-West Europe,Mh-0
7256,Poland,50.95,7.5,North-West Europe,Mh-1
7258,Germany,50.5,8.5,North-West Europe,Nw-0
7260,Germany,50.5,8.5,North-West Europe,Nw-2
7262,Germany,50.5,8.5,North-West Europe,Nw-4
7270,Netherlands,52.24,4.45,North-West Europe,Nok-1
7275,Germany,51.0581,13.2995,North-West Europe,No-0
7276,Germany,50.2,8.5833,North-West Europe,Ob-0
7277,Germany,50.2,8.5833,North-West Europe,Ob-1
7280,Germany,53.1667,8.2,North-West Europe,Old-1
7281,Germany,53.1667,8.2,North-West Europe,Old-2
7282,Germany,50.3827,8.01161,North-West Europe,Or-0
7310,Germany,50.1448,8.60706,North-West Europe,Pr-0
7316,Netherlands,51.9667,5.56667,North-West Europe,Rhen-1
7331,Germany,51.6832,10.2144,North-West Europe,Sh-0
7337,Germany,50.8738,8.02341,North-West Europe,Si-0
7343,Germany,52.5339,13.181,North-West Europe,Sp-0
7344,Germany,47.6667,9.5,North-West Europe,Sg-1
7346,Germany,52.6058,11.8558,North-West Europe,Ste-0
7353,Netherlands,52.08,4.3,North-West Europe,Tha-1
7378,Germany,48.0333,7.7667,North-West Europe,Uk-1
7379,Germany,48.0333,7.7667,North-West Europe,Uk-2
7381,Germany,48.0333,7.7667,North-West Europe,Uk-4
7382,Netherlands,52.0918,5.1145,North-West Europe,Utrecht
7384,Netherlands,52.0333,5.55,North-West Europe,Ven-1
7386,Germany,50.1946,8.74639,North-West Europe,Vi-0
7390,Netherlands,51.9666,5.6666,North-West Europe,Wag-3
7391,Netherlands,51.9666,5.6666,North-West Europe,Wag-4
7392,Netherlands,51.9666,5.6666,North-West Europe,Wag-5
7404,Germany,52.6,10.0667,North-West Europe,Wc-1
7406,Germany,52.3,9.3,North-West Europe,Wt-1
7408,Germany,52.3,9.3,North-West Europe,Wt-3
7411,Germany,47.9299,10.8134,North-West Europe,Wl-0
7504,Netherlands,52.25,4.5667,North-West Europe,PHW-33
8239,Germany,51,7,North-West Europe,Köln
8271,Germany,50.5,9.5,North-West Europe,Bu-0
8296,Germany,53.5,10.5,North-West Europe,Gd-1
8304,Netherlands,52,5,North-West Europe,Hi-0
8310,Germany,52.24,9.44,North-West Europe,Hs-0
8312,Germany,50.5,7.5,North-West Europe,Is-0
8325,Poland,50,19.3,North-West Europe,Lip-0
8348,Germany,50.5,8.5,North-West Europe,Nw-0
8366,Germany,50.5,8.5,North-West Europe,Rd-0
8411,Germany,50.5,8.5,North-West Europe,Rd-0
8420,Germany,50.0667,8.5333,North-West Europe,Kelsterbach-4
8430,Netherlands,52.25,4.5667,North-West Europe,Lisse
957,Italy,42.1167,12.4833,South-Central,Belmonte-4-94
6942,Switzerland,50,10,South-Central,Nd-1
6979,Switzerland,47.25,8.26,South-Central,Wei-0
7004,Switzerland,47.5,7.5,South-Central,Bs-2
7069,Switzerland,46.0333,7.1167,South-Central,Cha-0
7145,Switzerland,46.5,6.08,South-Central,Ge-1
7265,Switzerland,50,10,South-Central,Nd-0
7291,Italy,38.07,13.22,South-Central,Pa-2
7292,Italy,38.07,13.22,South-Central,Pa-3
7355,Italy,41.96,12.8,South-Central,Tiv-1
7403,Switzerland,47.25,8.26,South-Central,Wei-1
7418,Switzerland,47.3667,8.55,South-Central,Zu-1
8243,Italy,43.7703,11.2547,South-Central,PHW-2
8270,Switzerland,47.5,7.5,South-Central,Bs-1
8297,Switzerland,46.5,6.08,South-Central,Ge-0
8337,Italy,44,12.37,South-Central,Mir-0
8353,Italy,38.07,13.22,South-Central,Pa-1
